start=new Date('2023-06-02T00:00:00.000Z').valueOf();
sats=[{"MEAN_ELEMENT_THEORY":"SGP4","OBJECT_TYPE":"PAYLOAD","TLE_LINE1":"1 51873U 22022X   23152.45602860  .00000402  00000-0  43354-4 0  9995","EPHEMERIS_TYPE":"0","REF_FRAME":"TEME","SITE":"AFETR","APOAPSIS":"540.469","LAUNCH_DATE":"2022-03-03","INCLINATION":"53.2157","CLASSIFICATION_TYPE":"U","COUNTRY_CODE":"US","OBJECT_NAME":"STARLINK-3582","MEAN_MOTION_DDOT":"0.0000000000000","ARG_OF_PERICENTER":"95.9640","PERIOD":"95.438","TIME_SYSTEM":"UTC","ELEMENT_SET_NO":"999","FILE":"3922365","CENTER_NAME":"EARTH","EPOCH":"2023-06-01T10:56:40.871040","MEAN_MOTION":"15.08836006","RA_OF_ASC_NODE":"233.2226","OBJECT_ID":"2022-022X","REV_AT_EPOCH":"7030","SEMIMAJOR_AXIS":"6917.893","MEAN_MOTION_DOT":"0.00000402","GP_ID":"232962134","ECCENTRICITY":"0.00010290","NORAD_CAT_ID":"51873","TLE_LINE2":"2 51873  53.2157 233.2226 0001029  95.9640 264.1469 15.08836006 70303","RCS_SIZE":"LARGE","DECAY_DATE":null,"BSTAR":"0.00004335400000","MEAN_ANOMALY":"264.1469","PERIAPSIS":"539.046"},{"MEAN_ELEMENT_THEORY":"SGP4","OBJECT_TYPE":"PAYLOAD","EPHEMERIS_TYPE":"0","TLE_LINE1":"1 51874U 22022Y   23152.46243326  .00001653  00000-0  12194-3 0  9991","REF_FRAME":"TEME","LAUNCH_DATE":"2022-03-03","INCLINATION":"53.2164","SITE":"AFETR","APOAPSIS":"540.313","COUNTRY_CODE":"US","CLASSIFICATION_TYPE":"U","OBJECT_NAME":"STARLINK-3574","ARG_OF_PERICENTER":"92.5257","PERIOD":"95.438","TIME_SYSTEM":"UTC","ELEMENT_SET_NO":"999","FILE":"3922548","MEAN_MOTION_DDOT":"0.0000000000000","OBJECT_ID":"2022-022Y","CENTER_NAME":"EARTH","MEAN_MOTION":"15.08831630","EPOCH":"2023-06-01T11:05:54.233664","RA_OF_ASC_NODE":"233.1838","GP_ID":"232971189","REV_AT_EPOCH":"7029","SEMIMAJOR_AXIS":"6917.906","MEAN_MOTION_DOT":"0.00001653","DECAY_DATE":null,"RCS_SIZE":"LARGE","ECCENTRICITY":"0.00007830","NORAD_CAT_ID":"51874","TLE_LINE2":"2 51874  53.2164 233.1838 0000783  92.5257 267.5825 15.08831630 70292","MEAN_ANOMALY":"267.5825","PERIAPSIS":"539.229","BSTAR":"0.00012194000000"},{"TLE_LINE2":"2 51875  53.2163 233.1975 0000882  90.3132 269.7961 15.08838164 70308","NORAD_CAT_ID":"51875","ECCENTRICITY":"0.00008820","RCS_SIZE":"LARGE","DECAY_DATE":null,"BSTAR":"0.00005604900000","PERIAPSIS":"539.141","MEAN_ANOMALY":"269.7961","RA_OF_ASC_NODE":"233.1975","MEAN_MOTION":"15.08838164","EPOCH":"2023-06-01T10:34:05.152224","CENTER_NAME":"EARTH","OBJECT_ID":"2022-022Z","MEAN_MOTION_DOT":"0.00000604","SEMIMAJOR_AXIS":"6917.886","REV_AT_EPOCH":"7030","GP_ID":"232971226","CLASSIFICATION_TYPE":"U","COUNTRY_CODE":"US","OBJECT_NAME":"STARLINK-3585","MEAN_MOTION_DDOT":"0.0000000000000","ELEMENT_SET_NO":"999","FILE":"3922541","TIME_SYSTEM":"UTC","PERIOD":"95.438","ARG_OF_PERICENTER":"90.3132","REF_FRAME":"TEME","TLE_LINE1":"1 51875U 22022Z   23152.44033741  .00000604  00000-0  56049-4 0  9991","EPHEMERIS_TYPE":"0","OBJECT_TYPE":"PAYLOAD","MEAN_ELEMENT_THEORY":"SGP4","APOAPSIS":"540.361","SITE":"AFETR","INCLINATION":"53.2163","LAUNCH_DATE":"2022-03-03"},{"REF_FRAME":"TEME","MEAN_ELEMENT_THEORY":"SGP4","OBJECT_TYPE":"PAYLOAD","TLE_LINE1":"1 51876U 22022AA  23152.45874913  .00000627  00000-0  57440-4 0  9998","EPHEMERIS_TYPE":"0","LAUNCH_DATE":"2022-03-03","INCLINATION":"53.2166","APOAPSIS":"540.396","SITE":"AFETR","COUNTRY_CODE":"US","CLASSIFICATION_TYPE":"U","OBJECT_NAME":"STARLINK-3583","TIME_SYSTEM":"UTC","FILE":"3922541","ELEMENT_SET_NO":"999","ARG_OF_PERICENTER":"99.4040","PERIOD":"95.438","MEAN_MOTION_DDOT":"0.0000000000000","OBJECT_ID":"2022-022AA","MEAN_MOTION":"15.08839325","EPOCH":"2023-06-01T11:00:35.924832","RA_OF_ASC_NODE":"233.1993","CENTER_NAME":"EARTH","GP_ID":"232971229","MEAN_MOTION_DOT":"0.00000627","REV_AT_EPOCH":"7030","SEMIMAJOR_AXIS":"6917.882","RCS_SIZE":"LARGE","DECAY_DATE":null,"TLE_LINE2":"2 51876  53.2166 233.1993 0000938  99.4040 260.7058 15.08839325 70300","ECCENTRICITY":"0.00009380","NORAD_CAT_ID":"51876","PERIAPSIS":"539.099","MEAN_ANOMALY":"260.7058","BSTAR":"0.00005744000000"},{"COUNTRY_CODE":"US","CLASSIFICATION_TYPE":"U","OBJECT_NAME":"STARLINK-3556","TIME_SYSTEM":"UTC","FILE":"3922541","ELEMENT_SET_NO":"999","ARG_OF_PERICENTER":"128.1815","PERIOD":"95.438","MEAN_MOTION_DDOT":"0.0000000000000","REF_FRAME":"TEME","OBJECT_TYPE":"PAYLOAD","MEAN_ELEMENT_THEORY":"SGP4","EPHEMERIS_TYPE":"0","TLE_LINE1":"1 51877U 22022AB  23152.57375539 -.00001092  00000-0 -50538-4 0  9992","LAUNCH_DATE":"2022-03-03","INCLINATION":"53.2171","APOAPSIS":"540.794","SITE":"AFETR","RCS_SIZE":"LARGE","DECAY_DATE":null,"TLE_LINE2":"2 51877  53.2171 222.6889 0001515 128.1815 231.9314 15.08839704 70458","ECCENTRICITY":"0.00015150","NORAD_CAT_ID":"51877","PERIAPSIS":"538.698","MEAN_ANOMALY":"231.9314","BSTAR":"-0.00005053800000","OBJECT_ID":"2022-022AB","EPOCH":"2023-06-01T13:46:12.465696","MEAN_MOTION":"15.08839704","RA_OF_ASC_NODE":"222.6889","CENTER_NAME":"EARTH","GP_ID":"232970723","MEAN_MOTION_DOT":"-0.00001092","REV_AT_EPOCH":"7045","SEMIMAJOR_AXIS":"6917.881"},{"TLE_LINE1":"1 51878U 22022AC  23152.38514740  .00000589  00000-0  55059-4 0  9992","EPHEMERIS_TYPE":"0","MEAN_ELEMENT_THEORY":"SGP4","OBJECT_TYPE":"PAYLOAD","REF_FRAME":"TEME","SITE":"AFETR","APOAPSIS":"540.207","INCLINATION":"53.2161","LAUNCH_DATE":"2022-03-03","COUNTRY_CODE":"US","OBJECT_NAME":"STARLINK-3575","CLASSIFICATION_TYPE":"U","MEAN_MOTION_DDOT":"0.0000000000000","PERIOD":"95.438","ARG_OF_PERICENTER":"102.4526","ELEMENT_SET_NO":"999","FILE":"3922541","TIME_SYSTEM":"UTC","CENTER_NAME":"EARTH","RA_OF_ASC_NODE":"233.5308","MEAN_MOTION":"15.08840031","EPOCH":"2023-06-01T09:14:36.735360","OBJECT_ID":"2022-022AC","SEMIMAJOR_AXIS":"6917.880","REV_AT_EPOCH":"7029","MEAN_MOTION_DOT":"0.00000589","GP_ID":"232970729","NORAD_CAT_ID":"51878","ECCENTRICITY":"0.00006670","TLE_LINE2":"2 51878  53.2161 233.5308 0000667 102.4526 257.6540 15.08840031 70299","DECAY_DATE":null,"RCS_SIZE":"LARGE","BSTAR":"0.00005505900000","MEAN_ANOMALY":"257.6540","PERIAPSIS":"539.284"},{"GP_ID":"232999408","MEAN_MOTION_DOT":"0.00000518","REV_AT_EPOCH":"7050","SEMIMAJOR_AXIS":"6917.885","OBJECT_ID":"2022-022AD","EPOCH":"2023-06-01T21:32:31.822656","MEAN_MOTION":"15.08838464","RA_OF_ASC_NODE":"221.2317","CENTER_NAME":"EARTH","PERIAPSIS":"539.116","MEAN_ANOMALY":"270.7542","BSTAR":"0.00005062700000","DECAY_DATE":null,"RCS_SIZE":"LARGE","TLE_LINE2":"2 51879  53.2156 221.2317 0000916  89.3555 270.7542 15.08838464 70509","ECCENTRICITY":"0.00009160","NORAD_CAT_ID":"51879","LAUNCH_DATE":"2022-03-03","INCLINATION":"53.2156","APOAPSIS":"540.384","SITE":"AFETR","REF_FRAME":"TEME","OBJECT_TYPE":"PAYLOAD","MEAN_ELEMENT_THEORY":"SGP4","EPHEMERIS_TYPE":"0","TLE_LINE1":"1 51879U 22022AD  23152.89759054  .00000518  00000-0  50627-4 0  9996","TIME_SYSTEM":"UTC","ELEMENT_SET_NO":"999","FILE":"3922718","ARG_OF_PERICENTER":"89.3555","PERIOD":"95.438","MEAN_MOTION_DDOT":"0.0000000000000","COUNTRY_CODE":"US","OBJECT_NAME":"STARLINK-3572","CLASSIFICATION_TYPE":"U"},{"BSTAR":"0.00004209300000","MEAN_ANOMALY":"261.1962","PERIAPSIS":"538.958","NORAD_CAT_ID":"51880","ECCENTRICITY":"0.00011520","TLE_LINE2":"2 51880  53.2176 232.9393 0001152  98.9161 261.1962 15.08836748 70309","RCS_SIZE":"LARGE","DECAY_DATE":null,"SEMIMAJOR_AXIS":"6917.890","REV_AT_EPOCH":"7030","MEAN_MOTION_DOT":"0.00000382","GP_ID":"232963882","CENTER_NAME":"EARTH","RA_OF_ASC_NODE":"232.9393","EPOCH":"2023-06-01T10:55:15.161376","MEAN_MOTION":"15.08836748","OBJECT_ID":"2022-022AE","MEAN_MOTION_DDOT":"0.0000000000000","PERIOD":"95.438","ARG_OF_PERICENTER":"98.9161","FILE":"3922365","ELEMENT_SET_NO":"999","TIME_SYSTEM":"UTC","COUNTRY_CODE":"US","CLASSIFICATION_TYPE":"U","OBJECT_NAME":"STARLINK-3566","SITE":"AFETR","APOAPSIS":"540.552","INCLINATION":"53.2176","LAUNCH_DATE":"2022-03-03","EPHEMERIS_TYPE":"0","TLE_LINE1":"1 51880U 22022AE  23152.45503659  .00000382  00000-0  42093-4 0  9995","MEAN_ELEMENT_THEORY":"SGP4","OBJECT_TYPE":"PAYLOAD","REF_FRAME":"TEME"},{"TLE_LINE1":"1 51881U 22022AF  23152.89022862  .00000681  00000-0  60842-4 0  9990","EPHEMERIS_TYPE":"0","MEAN_ELEMENT_THEORY":"SGP4","OBJECT_TYPE":"PAYLOAD","REF_FRAME":"TEME","SITE":"AFETR","APOAPSIS":"540.359","INCLINATION":"53.2161","LAUNCH_DATE":"2022-03-03","COUNTRY_CODE":"US","OBJECT_NAME":"STARLINK-3504","CLASSIFICATION_TYPE":"U","MEAN_MOTION_DDOT":"0.0000000000000","PERIOD":"95.438","ARG_OF_PERICENTER":"87.9248","FILE":"3922718","ELEMENT_SET_NO":"999","TIME_SYSTEM":"UTC","CENTER_NAME":"EARTH","RA_OF_ASC_NODE":"221.2622","EPOCH":"2023-06-01T21:21:55.752768","MEAN_MOTION":"15.08838900","OBJECT_ID":"2022-022AF","SEMIMAJOR_AXIS":"6917.884","REV_AT_EPOCH":"7055","MEAN_MOTION_DOT":"0.00000681","GP_ID":"232998406","NORAD_CAT_ID":"51881","ECCENTRICITY":"0.00008820","TLE_LINE2":"2 51881  53.2161 221.2622 0000882  87.9248 272.1845 15.08838900 70554","RCS_SIZE":"LARGE","DECAY_DATE":null,"BSTAR":"0.00006084200000","MEAN_ANOMALY":"272.1845","PERIAPSIS":"539.139"},{"ECCENTRICITY":"0.00010830","NORAD_CAT_ID":"51882","TLE_LINE2":"2 51882  53.2169 221.2224 0001083  86.9545 273.1571 15.08838863 70559","RCS_SIZE":"LARGE","DECAY_DATE":null,"BSTAR":"0.00002770300000","MEAN_ANOMALY":"273.1571","PERIAPSIS":"539.000","CENTER_NAME":"EARTH","MEAN_MOTION":"15.08838863","EPOCH":"2023-06-01T21:39:12.719520","RA_OF_ASC_NODE":"221.2224","OBJECT_ID":"2022-022AG","REV_AT_EPOCH":"7055","SEMIMAJOR_AXIS":"6917.884","MEAN_MOTION_DOT":"0.00000153","GP_ID":"232971237","OBJECT_NAME":"STARLINK-3570","COUNTRY_CODE":"US","CLASSIFICATION_TYPE":"U","MEAN_MOTION_DDOT":"0.0000000000000","ARG_OF_PERICENTER":"86.9545","PERIOD":"95.438","TIME_SYSTEM":"UTC","FILE":"3922575","ELEMENT_SET_NO":"999","OBJECT_TYPE":"PAYLOAD","MEAN_ELEMENT_THEORY":"SGP4","TLE_LINE1":"1 51882U 22022AG  23152.90223055  .00000153  00000-0  27703-4 0  9993","EPHEMERIS_TYPE":"0","REF_FRAME":"TEME","SITE":"AFETR","APOAPSIS":"540.498","LAUNCH_DATE":"2022-03-03","INCLINATION":"53.2169"}];
